start=new Date('2021-12-16T00:00:00.000Z').valueOf();
sats=[{"SITE":"AFETR","SEMIMAJOR_AXIS":"6740.921","ECCENTRICITY":"0.00008880","DECAY_DATE":null,"MEAN_ELEMENT_THEORY":"SGP4","MEAN_MOTION_DDOT":"0.0000000000000","ARG_OF_PERICENTER":"310.2726","PERIAPSIS":"362.188","RA_OF_ASC_NODE":"332.8274","TIME_SYSTEM":"UTC","MEAN_MOTION":"15.68642163","TLE_LINE1":"1 49426U 21104U   21349.91668981 -.00668194  00000-0 -62398-2 0  9996","MEAN_ANOMALY":"228.5759","APOAPSIS":"363.385","ELEMENT_SET_NO":"999","TLE_LINE2":"2 49426  53.2175 332.8274 0000888 310.2726 228.5759 15.68642163  3681","OBJECT_ID":"2021-104U","REV_AT_EPOCH":"368","GP_ID":"191799993","OBJECT_TYPE":"PAYLOAD","RCS_SIZE":"LARGE","COUNTRY_CODE":"US","FILE":"3241542","BSTAR":"-0.00623980000000","EPOCH":"2021-12-15T22:00:01.999584","LAUNCH_DATE":"2021-11-13","CENTER_NAME":"EARTH","REF_FRAME":"TEME","CLASSIFICATION_TYPE":"U","EPHEMERIS_TYPE":"0","MEAN_MOTION_DOT":"-0.00668194","PERIOD":"91.799","NORAD_CAT_ID":"49426","OBJECT_NAME":"STARLINK-3114","INCLINATION":"53.2175"},{"REV_AT_EPOCH":"368","ELEMENT_SET_NO":"999","TLE_LINE2":"2 49427  53.2175 332.8226 0000795 343.4573 202.1095 15.68986364  3689","OBJECT_ID":"2021-104V","TLE_LINE1":"1 49427U 21104V   21349.91668981 -.00666057  00000-0 -61303-2 0  9998","MEAN_ANOMALY":"202.1095","MEAN_MOTION":"15.68986364","APOAPSIS":"362.336","PERIAPSIS":"361.264","RA_OF_ASC_NODE":"332.8226","TIME_SYSTEM":"UTC","ARG_OF_PERICENTER":"343.4573","MEAN_ELEMENT_THEORY":"SGP4","ECCENTRICITY":"0.00007950","DECAY_DATE":null,"MEAN_MOTION_DDOT":"0.0000000000000","SITE":"AFETR","SEMIMAJOR_AXIS":"6739.935","OBJECT_NAME":"STARLINK-3131","MEAN_MOTION_DOT":"-0.00666057","PERIOD":"91.779","NORAD_CAT_ID":"49427","INCLINATION":"53.2175","CLASSIFICATION_TYPE":"U","EPHEMERIS_TYPE":"0","REF_FRAME":"TEME","CENTER_NAME":"EARTH","FILE":"3241542","BSTAR":"-0.00613030000000","COUNTRY_CODE":"US","LAUNCH_DATE":"2021-11-13","EPOCH":"2021-12-15T22:00:01.999584","RCS_SIZE":"LARGE","OBJECT_TYPE":"PAYLOAD","GP_ID":"191800193"},{"REF_FRAME":"TEME","CENTER_NAME":"EARTH","NORAD_CAT_ID":"49428","PERIOD":"91.761","MEAN_MOTION_DOT":"-0.00664465","OBJECT_NAME":"STARLINK-3121","INCLINATION":"53.2175","CLASSIFICATION_TYPE":"U","EPHEMERIS_TYPE":"0","GP_ID":"191800394","COUNTRY_CODE":"US","FILE":"3241542","BSTAR":"-0.00603660000000","EPOCH":"2021-12-15T22:00:01.999584","LAUNCH_DATE":"2021-11-13","OBJECT_TYPE":"PAYLOAD","RCS_SIZE":"LARGE","MEAN_MOTION":"15.69293753","MEAN_ANOMALY":"213.0436","TLE_LINE1":"1 49428U 21104W   21349.91668981 -.00664465  00000-0 -60366-2 0  9998","APOAPSIS":"361.556","PERIAPSIS":"360.285","TIME_SYSTEM":"UTC","RA_OF_ASC_NODE":"332.8146","REV_AT_EPOCH":"368","TLE_LINE2":"2 49428  53.2175 332.8146 0000943 339.5000 213.0436 15.69293753  3681","ELEMENT_SET_NO":"999","OBJECT_ID":"2021-104W","SEMIMAJOR_AXIS":"6739.055","SITE":"AFETR","ARG_OF_PERICENTER":"339.5000","DECAY_DATE":null,"ECCENTRICITY":"0.00009430","MEAN_ELEMENT_THEORY":"SGP4","MEAN_MOTION_DDOT":"0.0000000000000"},{"GP_ID":"191800993","FILE":"3241542","COUNTRY_CODE":"US","BSTAR":"-0.00609890000000","EPOCH":"2021-12-15T22:00:01.999584","LAUNCH_DATE":"2021-11-13","OBJECT_TYPE":"PAYLOAD","RCS_SIZE":"LARGE","REF_FRAME":"TEME","CENTER_NAME":"EARTH","PERIOD":"91.772","MEAN_MOTION_DOT":"-0.00665847","NORAD_CAT_ID":"49430","OBJECT_NAME":"STARLINK-3138","INCLINATION":"53.2175","CLASSIFICATION_TYPE":"U","EPHEMERIS_TYPE":"0","SITE":"AFETR","SEMIMAJOR_AXIS":"6739.606","ARG_OF_PERICENTER":"320.5236","DECAY_DATE":null,"ECCENTRICITY":"0.00008660","MEAN_ELEMENT_THEORY":"SGP4","MEAN_MOTION_DDOT":"0.0000000000000","MEAN_MOTION":"15.69101364","TLE_LINE1":"1 49430U 21104Y   21349.91668981 -.00665847  00000-0 -60989-2 0  9997","MEAN_ANOMALY":"227.2146","APOAPSIS":"362.055","PERIAPSIS":"360.887","TIME_SYSTEM":"UTC","RA_OF_ASC_NODE":"332.8205","REV_AT_EPOCH":"368","ELEMENT_SET_NO":"999","TLE_LINE2":"2 49430  53.2175 332.8205 0000866 320.5236 227.2146 15.69101364  3686","OBJECT_ID":"2021-104Y"},{"REV_AT_EPOCH":"368","OBJECT_ID":"2021-104Z","ELEMENT_SET_NO":"999","TLE_LINE2":"2 49431  53.2175 332.8131 0001368  57.7288 123.2046 15.68199515  3687","APOAPSIS":"364.977","TLE_LINE1":"1 49431U 21104Z   21349.91668981 -.00660948  00000-0 -62796-2 0  9993","MEAN_ANOMALY":"123.2046","MEAN_MOTION":"15.68199515","TIME_SYSTEM":"UTC","RA_OF_ASC_NODE":"332.8131","PERIAPSIS":"363.132","ARG_OF_PERICENTER":"57.7288","MEAN_MOTION_DDOT":"0.0000000000000","MEAN_ELEMENT_THEORY":"SGP4","DECAY_DATE":null,"ECCENTRICITY":"0.00013680","SITE":"AFETR","SEMIMAJOR_AXIS":"6742.190","INCLINATION":"53.2175","OBJECT_NAME":"STARLINK-3153","PERIOD":"91.825","MEAN_MOTION_DOT":"-0.00660948","NORAD_CAT_ID":"49431","EPHEMERIS_TYPE":"0","CLASSIFICATION_TYPE":"U","REF_FRAME":"TEME","CENTER_NAME":"EARTH","LAUNCH_DATE":"2021-11-13","EPOCH":"2021-12-15T22:00:01.999584","FILE":"3241542","BSTAR":"-0.00627960000000","COUNTRY_CODE":"US","RCS_SIZE":"LARGE","OBJECT_TYPE":"PAYLOAD","GP_ID":"191799594"},{"ELEMENT_SET_NO":"999","TLE_LINE2":"2 49432  53.2187 332.6797 0002046  37.7227 214.3155 15.73250401  6383","OBJECT_ID":"2021-104AA","REV_AT_EPOCH":"638","PERIAPSIS":"348.240","TIME_SYSTEM":"UTC","RA_OF_ASC_NODE":"332.6797","TLE_LINE1":"1 49432U 21104AA  21349.91668981  .00005972  00000-0  46847-4 0  9993","MEAN_ANOMALY":"214.3155","MEAN_MOTION":"15.73250401","APOAPSIS":"350.993","MEAN_ELEMENT_THEORY":"SGP4","DECAY_DATE":null,"ECCENTRICITY":"0.00020460","MEAN_MOTION_DDOT":"0.0000000000000","ARG_OF_PERICENTER":"37.7227","SITE":"AFETR","SEMIMAJOR_AXIS":"6727.751","CLASSIFICATION_TYPE":"U","EPHEMERIS_TYPE":"0","OBJECT_NAME":"STARLINK-3158","PERIOD":"91.530","NORAD_CAT_ID":"49432","MEAN_MOTION_DOT":"0.00005972","INCLINATION":"53.2187","CENTER_NAME":"EARTH","REF_FRAME":"TEME","RCS_SIZE":"LARGE","OBJECT_TYPE":"PAYLOAD","COUNTRY_CODE":"US","FILE":"3241523","BSTAR":"0.00004684700000","LAUNCH_DATE":"2021-11-13","EPOCH":"2021-12-15T22:00:01.999584","GP_ID":"191776453"},{"MEAN_MOTION_DDOT":"0.0000000000000","ECCENTRICITY":"0.00025140","DECAY_DATE":null,"MEAN_ELEMENT_THEORY":"SGP4","ARG_OF_PERICENTER":"22.8468","SITE":"AFETR","SEMIMAJOR_AXIS":"6727.866","OBJECT_ID":"2021-104AB","TLE_LINE2":"2 49433  53.2183 332.7558 0002514  22.8468 192.4670 15.73210255  6389","ELEMENT_SET_NO":"999","REV_AT_EPOCH":"638","RA_OF_ASC_NODE":"332.7558","TIME_SYSTEM":"UTC","PERIAPSIS":"348.040","APOAPSIS":"351.422","MEAN_MOTION":"15.73210255","TLE_LINE1":"1 49433U 21104AB  21349.91668981  .00059871  00000-0  42774-3 0  9995","MEAN_ANOMALY":"192.4670","OBJECT_TYPE":"PAYLOAD","RCS_SIZE":"LARGE","EPOCH":"2021-12-15T22:00:01.999584","LAUNCH_DATE":"2021-11-13","COUNTRY_CODE":"US","FILE":"3241227","BSTAR":"0.00042774000000","GP_ID":"191770173","EPHEMERIS_TYPE":"0","CLASSIFICATION_TYPE":"U","INCLINATION":"53.2183","NORAD_CAT_ID":"49433","PERIOD":"91.533","MEAN_MOTION_DOT":"0.00059871","OBJECT_NAME":"STARLINK-3079","CENTER_NAME":"EARTH","REF_FRAME":"TEME"},{"REF_FRAME":"TEME","CENTER_NAME":"EARTH","INCLINATION":"53.2175","OBJECT_NAME":"STARLINK-3134","NORAD_CAT_ID":"49434","PERIOD":"91.766","MEAN_MOTION_DOT":"-0.00664811","EPHEMERIS_TYPE":"0","CLASSIFICATION_TYPE":"U","GP_ID":"191800595","LAUNCH_DATE":"2021-11-13","EPOCH":"2021-12-15T22:00:01.999584","BSTAR":"-0.00606120000000","FILE":"3241542","COUNTRY_CODE":"US","RCS_SIZE":"LARGE","OBJECT_TYPE":"PAYLOAD","APOAPSIS":"361.716","MEAN_ANOMALY":"217.6358","TLE_LINE1":"1 49434U 21104AC  21349.91668981 -.00664811  00000-0 -60612-2 0  9994","MEAN_MOTION":"15.69210301","TIME_SYSTEM":"UTC","RA_OF_ASC_NODE":"332.8168","PERIAPSIS":"360.602","REV_AT_EPOCH":"368","OBJECT_ID":"2021-104AC","ELEMENT_SET_NO":"999","TLE_LINE2":"2 49434  53.2175 332.8168 0000826 333.1182 217.6358 15.69210301  3684","SITE":"AFETR","SEMIMAJOR_AXIS":"6739.294","ARG_OF_PERICENTER":"333.1182","MEAN_MOTION_DDOT":"0.0000000000000","MEAN_ELEMENT_THEORY":"SGP4","ECCENTRICITY":"0.00008260","DECAY_DATE":null},{"CLASSIFICATION_TYPE":"U","EPHEMERIS_TYPE":"0","MEAN_MOTION_DOT":"-0.00027270","PERIOD":"91.531","NORAD_CAT_ID":"49435","OBJECT_NAME":"STARLINK-3117","INCLINATION":"53.2182","CENTER_NAME":"EARTH","REF_FRAME":"TEME","OBJECT_TYPE":"PAYLOAD","RCS_SIZE":"LARGE","FILE":"3241542","COUNTRY_CODE":"US","BSTAR":"-0.00019023000000","EPOCH":"2021-12-15T22:00:01.999584","LAUNCH_DATE":"2021-11-13","GP_ID":"191799994","ELEMENT_SET_NO":"999","TLE_LINE2":"2 49435  53.2182 332.7307 0002049  29.9261 197.5986 15.73230864  3688","OBJECT_ID":"2021-104AD","REV_AT_EPOCH":"368","PERIAPSIS":"348.294","TIME_SYSTEM":"UTC","RA_OF_ASC_NODE":"332.7307","MEAN_MOTION":"15.73230864","TLE_LINE1":"1 49435U 21104AD  21349.91668981 -.00027270  00000-0 -19023-3 0  9998","MEAN_ANOMALY":"197.5986","APOAPSIS":"351.051","ECCENTRICITY":"0.00020490","DECAY_DATE":null,"MEAN_ELEMENT_THEORY":"SGP4","MEAN_MOTION_DDOT":"0.0000000000000","ARG_OF_PERICENTER":"29.9261","SEMIMAJOR_AXIS":"6727.807","SITE":"AFETR"},{"PERIAPSIS":"348.180","TIME_SYSTEM":"UTC","RA_OF_ASC_NODE":"332.7585","MEAN_ANOMALY":"195.7685","TLE_LINE1":"1 49436U 21104AE  21349.91668981  .00004522  00000-0  36578-4 0  9997","MEAN_MOTION":"15.73232670","APOAPSIS":"351.155","TLE_LINE2":"2 49436  53.2185 332.7585 0002211  18.6868 195.7685 15.73232670  6371","ELEMENT_SET_NO":"999","OBJECT_ID":"2021-104AE","REV_AT_EPOCH":"637","SITE":"AFETR","SEMIMAJOR_AXIS":"6727.802","MEAN_ELEMENT_THEORY":"SGP4","ECCENTRICITY":"0.00022110","DECAY_DATE":null,"MEAN_MOTION_DDOT":"0.0000000000000","ARG_OF_PERICENTER":"18.6868","CENTER_NAME":"EARTH","REF_FRAME":"TEME","CLASSIFICATION_TYPE":"U","EPHEMERIS_TYPE":"0","OBJECT_NAME":"STARLINK-3049","PERIOD":"91.531","NORAD_CAT_ID":"49436","MEAN_MOTION_DOT":"0.00004522","INCLINATION":"53.2185","GP_ID":"191769681","RCS_SIZE":"LARGE","OBJECT_TYPE":"PAYLOAD","FILE":"3241227","COUNTRY_CODE":"US","BSTAR":"0.00003657800000","LAUNCH_DATE":"2021-11-13","EPOCH":"2021-12-15T22:00:01.999584"}];
